ONEWEB-0269             
1 48987U 21060W   24039.94446599 -.00000007  00000+0 -52368-4 0  9999
2 48987  87.9051  39.8005 0001806  90.3609 269.7729 13.16596110126560
ONEWEB-0270             
1 48988U 21060X   24039.88589960  .00000082  00000+0  18152-3 0  9996
2 48988  87.9045  39.8001 0002288  75.9325 284.2060 13.16596268126596
ONEWEB-0271             
1 48989U 21060Y   24039.94922466 -.00000014  00000+0 -69405-4 0  9991
2 48989  87.9046  39.7628 0002252  84.2931 275.8456 13.16593125126605
ONEWEB-0272             
1 48990U 21060Z   24039.89539545  .00000047  00000+0  89612-4 0  9995
2 48990  87.9048  39.8003 0002149  87.2335 272.9042 13.16592959126549
ONEWEB-0273             
1 48991U 21060AA  24039.91756695  .00000109  00000+0  25032-3 0  9990
2 48991  87.9049  39.7834 0002030  83.0212 277.1150 13.16594731126524
ONEWEB-0274             
1 48992U 21060AB  24039.94289237  .00000010  00000+0 -74729-5 0  9998
2 48992  87.9056  39.7838 0002304  99.8090 260.3301 13.16593434126565
ONEWEB-0275             
1 48993U 21060AC  24039.93181115  .00000030  00000+0  43799-4 0  9997
2 48993  87.9049  39.7776 0002003  84.1999 275.9360 13.16593210126491
ONEWEB-0276             
1 48994U 21060AD  24039.96508656 -.00002667  00000+0 -70143-2 0  9995
2 48994  87.9031  39.7691 0002425  77.2715 282.8686 13.16572695126511
ONEWEB-0277             
1 48995U 21060AE  24039.90173325  .00000110  00000+0  25452-3 0  9994
2 48995  87.9046  39.8181 0002380  81.9381 278.2020 13.16594113126491
ONEWEB-0278             
1 48996U 21060AF  24039.89222292  .00000019  00000+0  15847-4 0  9997
2 48996  87.9046  39.7783 0001491  83.0338 277.0962 13.16594849126629
ONEWEB-0279             
1 48997U 21060AG  24039.90016461  .00000649  00000+0  16651-2 0  9990
2 48997  87.9050  39.7749 0002706  70.2976 289.8447 13.16594529126559
ONEWEB-0280             
1 48998U 21060AH  24039.91440048  .00000092  00000+0  20619-3 0  9996
2 48998  87.9049  39.7719 0002520  85.1089 275.0330 13.16594869126497
ONEWEB-0281             
1 48999U 21060AJ  24039.92072484  .00000092  00000+0  20785-3 0  9997
2 48999  87.9049  39.7736 0001936  95.4445 264.6907 13.16593873126563
ONEWEB-0282             
1 49000U 21060AK  24039.95081244 -.00000009  00000+0 -58392-4 0  9994
2 49000  87.9046  39.7846 0002091  78.0296 282.1069 13.16594717126540
ONEWEB-0283             
1 49001U 21060AL  24039.93973523  .00000035  00000+0  56665-4 0  9991
2 49001  87.9048  39.7942 0002185  86.8791 273.2590 13.16596142126556
ONEWEB-0284             
1 49002U 21060AM  24039.93338971  .00000008  00000+0 -13673-4 0  9997
2 49002  87.9042  39.7869 0001930  80.4134 279.7215 13.16593461126531
ONEWEB-0285             
1 49075U 21075A   24039.86836634  .00000377  00000+0  10136-2 0  9991
2 49075  87.9043 161.6501 0001635 104.0176 256.1135 13.12441531122498
ONEWEB-0286             
1 49076U 21075B   24039.83962624 -.00000107  00000+0 -33348-3 0  9992
2 49076  87.9038 161.6627 0001414 120.2171 239.9098 13.12443503121848
ONEWEB-0287             
1 49077U 21075C   24039.87348925 -.00000026  00000+0 -99777-4 0  9998
2 49077  87.9239 176.7604 0001061 102.4376 257.6874 13.17649832120465
ONEWEB-0288             
1 49078U 21075D   24039.89998442 -.00000453  00000+0 -12947-2 0  9992
2 49078  87.9037 161.6547 0001421 105.2568 254.8717 13.12442470122477
ONEWEB-0289             
1 49079U 21075E   24039.90195744  .00000001  00000+0 -29601-4 0  9994
2 49079  87.9246 176.7801 0001778 100.9784 259.1548 13.17647366121045
ONEWEB-0290             
1 49080U 21075F   24039.88454724 -.00000048  00000+0 -15796-3 0  9990
2 49080  87.9245 176.7466 0001255  87.1463 272.9812 13.17648772120456
ONEWEB-0291             
1 49081U 21075G   24039.86874115 -.00000001  00000+0 -36473-4 0  9994
2 49081  87.9238 176.7775 0001273 101.9985 258.1289 13.17650754120442
ONEWEB-0293             
1 49082U 21075H   24039.89403664  .00000054  00000+0  10667-3 0  9997
2 49082  87.9242 176.7794 0001352  94.6208 265.5078 13.17650511120475
ONEWEB-0294             
1 49083U 21075J   24039.83010208 -.00000330  00000+0 -95178-3 0  9999
2 49083  87.9038 161.6675 0001056  85.6777 274.4472 13.12443996121854
ONEWEB-0295             
1 49084U 21075K   24039.89563844  .00000003  00000+0 -26638-4 0  9997
2 49084  87.9245 176.7548 0001069 110.5683 249.5563 13.17649721120435
ONEWEB-0296             
1 49085U 21075L   24039.88886466 -.00000247  00000+0 -72080-3 0  9997
2 49085  87.9039 161.6547 0000803 113.0398 247.0815 13.12441283121864
ONEWEB-0297             
1 49086U 21075M   24039.84439127  .00000069  00000+0  15692-3 0  9998
2 49086  87.9050 161.6608 0001692 109.2364 250.8948 13.12443605122469
ONEWEB-0298             
1 49087U 21075N   24039.89878704  .00000011  00000+0 -49603-5 0  9991
2 49087  87.9244 176.7737 0001389 111.2123 248.9157 13.17651914120461
ONEWEB-0299             
1 49088U 21075P   24039.90037141  .00000035  00000+0  55859-4 0  9990
2 49088  87.9240 176.7483 0001326 114.1759 245.9511 13.17651064120449
ONEWEB-0300             
1 49089U 21075Q   24039.83486175 -.00000238  00000+0 -69744-3 0  9992
2 49089  87.9038 161.6646 0001784 114.6226 245.5088 13.12443300122489
ONEWEB-0301             
1 49090U 21075R   24039.81897973 -.00000381  00000+0 -10952-2 0  9999
2 49090  87.9040 161.6695 0001947 107.5936 252.5406 13.12442312121841
ONEWEB-0302             
1 49091U 21075S   24039.88251093 -.00000020  00000+0 -90099-4 0  9996
2 49091  87.9039 161.6544 0001323 106.9546 253.1727 13.12443100121839
ONEWEB-0304             
1 49092U 21075T   24039.87507364  .00000015  00000+0  44961-5 0  9991
2 49092  87.9244 176.7643 0001202 105.4683 254.6581 13.17650052120415
ONEWEB-0305             
1 49093U 21075U   24039.94308198 -.00000101  00000+0 -29447-3 0  9992
2 49093  87.9240 176.7411 0001155 119.9495 240.1751 13.17648342120455
ONEWEB-0308             
1 49094U 21075V   24039.87616334  .00000206  00000+0  53763-3 0  9991
2 49094  87.9039 161.6567 0001695 106.8781 253.2534 13.12440828121841
ONEWEB-0309             
1 49095U 21075W   24039.87190614  .00000006  00000+0 -18712-4 0  9995
2 49095  87.9246 176.7557 0001170  83.2968 276.8296 13.17649591120412
ONEWEB-0310             
1 49096U 21075X   24039.89045400 -.00000239  00000+0 -70072-3 0  9995
2 49096  87.9047 161.6494 0001526  98.8117 261.3184 13.12441907122477
ONEWEB-0311             
1 49097U 21075Y   24039.87821858 -.00000189  00000+0 -51884-3 0  9997
2 49097  87.9245 176.7550 0001356 121.5263 238.6001 13.17647743120468
ONEWEB-0312             
1 49098U 21075Z   24039.89246317 -.00000007  00000+0 -51153-4 0  9990
2 49098  87.9245 176.7845 0001017 103.3426 256.7819 13.17647791120448
ONEWEB-0313             
1 49099U 21075AA  24039.64275874 -.00026942  00000+0 -69852-1 0  9992
2 49099  87.9263 176.8373 0001530  67.5720 292.5573 13.17430807120403
ONEWEB-0314             
1 49100U 21075AB  24039.93991900 -.00000026  00000+0 -10018-3 0  9999
2 49100  87.9239 176.7401 0000998 108.6181 251.5059 13.17650486120417
ONEWEB-0315             
1 49101U 21075AC  24039.86506170  .00000437  00000+0  11799-2 0  9993
2 49101  87.9038 161.6540 0001669 109.3229 250.8080 13.12443984122459
ONEWEB-0316             
1 49102U 21075AD  24039.85811845 -.00000008  00000+0 -52803-4 0  9990
2 49102  87.9249 146.4747 0001673 115.9819 244.1485 13.18684276123955
ONEWEB-0317             
1 49103U 21075AE  24039.85869422  .00000428  00000+0  11553-2 0  9994
2 49103  87.9040 161.6624 0001576  97.0743 263.0565 13.12442349122478
ONEWEB-0318             
1 49104U 21075AF  24039.85495689  .00000036  00000+0  59505-4 0  9991
2 49104  87.9245 146.4718 0001674 119.3446 240.7854 13.18686774123919
ONEWEB-0319             
1 49105U 21075AG  24039.87980614  .00000017  00000+0  99220-5 0  9999
2 49105  87.9244 176.7805 0001284 128.1501 231.9746 13.17650130120442
ONEWEB-0323             
1 49106U 21075AH  24039.84916002  .00000283  00000+0  75085-3 0  9993
2 49106  87.9041 161.6525 0001473 114.8604 245.2678 13.12443284121837
ONEWEB-0329             
1 49107U 21075AJ  24039.88772660  .00000013  00000+0  47243-6 0  9997
2 49107  87.9245 176.7824 0001297 104.7809 255.3466 13.17654253120428
ONEWEB-0330             
1 49108U 21075AK  24039.88930808  .00000030  00000+0  44623-4 0  9994
2 49108  87.9245 176.7821 0001248 100.6068 259.5204 13.17649337120461
ONEWEB-0292             
1 49186U 21083A   24039.80484166 -.00000151  00000+0 -44931-3 0  9999
2 49186  87.9007 131.3210 0001819 111.5826 248.5497 13.13469825118118
ONEWEB-0303             
1 49187U 21083B   24039.85179422  .00000041  00000+0  72519-4 0  9991
2 49187  87.9246 146.4711 0001696 116.3663 243.7644 13.18684539116724
ONEWEB-0306             
1 49188U 21083C   24039.84230775 -.00000035  00000+0 -12121-3 0  9997
2 49188  87.9247 146.4614 0001912 114.6879 245.4453 13.18684369116761
ONEWEB-0307             
1 49189U 21083D   24039.80008051 -.00000053  00000+0 -18050-3 0  9991
2 49189  87.9009 131.3208 0001744 105.9676 254.1645 13.13469396118118
ONEWEB-0320             
1 49190U 21083E   24039.84863736 -.00000003  00000+0 -39610-4 0  9997
2 49190  87.9248 146.4824 0001711 103.6892 256.4430 13.18686819116723
ONEWEB-0321             
1 49191U 21083F   24039.66439128  .00000007  00000+0 -15442-4 0  9992
2 49191  87.9146  85.5209 0002131  91.1756 268.9621 13.20771265123370
ONEWEB-0322             
1 49192U 21083G   24039.79532989  .00000028  00000+0  42465-4 0  9993
2 49192  87.9008 131.3104 0001919  90.2254 269.9095 13.13468442118101
ONEWEB-0324             
1 49193U 21083H   24039.83440822  .00000051  00000+0  96200-4 0  9995
2 49193  87.9246 146.4679 0001346 104.4077 255.7204 13.18686843116740
ONEWEB-0325             
1 49194U 21083J   24039.83916580  .00000018  00000+0  12053-4 0  9992
2 49194  87.9245 146.4797 0001762 105.2361 254.8966 13.18681703116754
